CCSDS_OMM_VERS = 2.0
CREATION_DATE  = 
ORIGINATOR     = 

OBJECT_NAME    = TWILIGHT H
OBJECT_ID      = 2026-004H
CENTER_NAME    = EARTH
REF_FRAME      = TEME
TIME_SYSTEM    = UTC
MEAN_ELEMENT_THEORY = SGP/SGP4

EPOCH          = 2026-02-04T03:51:13.990176
MEAN_MOTION    = 14.87428418
ECCENTRICITY   = .0006003
INCLINATION    = 97.7954
RA_OF_ASC_NODE = 35.9080
ARG_OF_PERICENTER = 211.8994
MEAN_ANOMALY   = 148.1860

EPHEMERIS_TYPE = 0
CLASSIFICATION_TYPE = U
NORAD_CAT_ID   = 67370
ELEMENT_SET_NO = 999
REV_AT_EPOCH   = 351
BSTAR          = .65587E-3
MEAN_MOTION_DOT = .5886E-4
MEAN_MOTION_DDOT = 0

CCSDS_OMM_VERS = 2.0
CREATION_DATE  = 
ORIGINATOR     = 

OBJECT_NAME    = TWILIGHT J
OBJECT_ID      = 2026-004J
CENTER_NAME    = EARTH
REF_FRAME      = TEME
TIME_SYSTEM    = UTC
MEAN_ELEMENT_THEORY = SGP/SGP4

EPOCH          = 2026-02-04T03:43:09.128064
MEAN_MOTION    = 14.87839746
ECCENTRICITY   = .0005376
INCLINATION    = 97.7995
RA_OF_ASC_NODE = 35.9219
ARG_OF_PERICENTER = 194.0675
MEAN_ANOMALY   = 166.0393

EPHEMERIS_TYPE = 0
CLASSIFICATION_TYPE = U
NORAD_CAT_ID   = 67371
ELEMENT_SET_NO = 999
REV_AT_EPOCH   = 351
BSTAR          = .81143E-3
MEAN_MOTION_DOT = .737E-4
MEAN_MOTION_DDOT = 0

CCSDS_OMM_VERS = 2.0
CREATION_DATE  = 
ORIGINATOR     = 

OBJECT_NAME    = TWILIGHT K
OBJECT_ID      = 2026-004K
CENTER_NAME    = EARTH
REF_FRAME      = TEME
TIME_SYSTEM    = UTC
MEAN_ELEMENT_THEORY = SGP/SGP4

EPOCH          = 2026-02-04T03:36:59.393088
MEAN_MOTION    = 14.87970796
ECCENTRICITY   = .0003728
INCLINATION    = 97.7973
RA_OF_ASC_NODE = 35.9231
ARG_OF_PERICENTER = 187.6280
MEAN_ANOMALY   = 172.4880

EPHEMERIS_TYPE = 0
CLASSIFICATION_TYPE = U
NORAD_CAT_ID   = 67372
ELEMENT_SET_NO = 999
REV_AT_EPOCH   = 351
BSTAR          = .34832E-3
MEAN_MOTION_DOT = .3141E-4
MEAN_MOTION_DDOT = 0

CCSDS_OMM_VERS = 2.0
CREATION_DATE  = 
ORIGINATOR     = 

OBJECT_NAME    = TWILIGHT L
OBJECT_ID      = 2026-004L
CENTER_NAME    = EARTH
REF_FRAME      = TEME
TIME_SYSTEM    = UTC
MEAN_ELEMENT_THEORY = SGP/SGP4

EPOCH          = 2026-02-04T03:45:56.824416
MEAN_MOTION    = 14.87575370
ECCENTRICITY   = .0005214
INCLINATION    = 97.7987
RA_OF_ASC_NODE = 35.9180
ARG_OF_PERICENTER = 200.9535
MEAN_ANOMALY   = 159.1469

EPHEMERIS_TYPE = 0
CLASSIFICATION_TYPE = U
NORAD_CAT_ID   = 67373
ELEMENT_SET_NO = 999
REV_AT_EPOCH   = 351
BSTAR          = .32061E-3
MEAN_MOTION_DOT = .2858E-4
MEAN_MOTION_DDOT = 0

CCSDS_OMM_VERS = 2.0
CREATION_DATE  = 
ORIGINATOR     = 

OBJECT_NAME    = TWILIGHT M
OBJECT_ID      = 2026-004M
CENTER_NAME    = EARTH
REF_FRAME      = TEME
TIME_SYSTEM    = UTC
MEAN_ELEMENT_THEORY = SGP/SGP4

EPOCH          = 2026-02-04T03:38:23.097408
MEAN_MOTION    = 14.87934013
ECCENTRICITY   = .0004013
INCLINATION    = 97.7971
RA_OF_ASC_NODE = 35.9205
ARG_OF_PERICENTER = 188.2506
MEAN_ANOMALY   = 171.8645

EPHEMERIS_TYPE = 0
CLASSIFICATION_TYPE = U
NORAD_CAT_ID   = 67374
ELEMENT_SET_NO = 999
REV_AT_EPOCH   = 351
BSTAR          = .37847E-3
MEAN_MOTION_DOT = .3414E-4
MEAN_MOTION_DDOT = 0

CCSDS_OMM_VERS = 2.0
CREATION_DATE  = 
ORIGINATOR     = 

OBJECT_NAME    = TWILIGHT N
OBJECT_ID      = 2026-004N
CENTER_NAME    = EARTH
REF_FRAME      = TEME
TIME_SYSTEM    = UTC
MEAN_ELEMENT_THEORY = SGP/SGP4

EPOCH          = 2026-02-04T03:37:47.408160
MEAN_MOTION    = 14.87954531
ECCENTRICITY   = .0004611
INCLINATION    = 97.8008
RA_OF_ASC_NODE = 35.9301
ARG_OF_PERICENTER = 184.3846
MEAN_ANOMALY   = 175.7331

EPHEMERIS_TYPE = 0
CLASSIFICATION_TYPE = U
NORAD_CAT_ID   = 67375
ELEMENT_SET_NO = 999
REV_AT_EPOCH   = 351
BSTAR          = .35211E-3
MEAN_MOTION_DOT = .3174E-4
MEAN_MOTION_DDOT = 0

CCSDS_OMM_VERS = 2.0
CREATION_DATE  = 
ORIGINATOR     = 

OBJECT_NAME    = TWILIGHT P
OBJECT_ID      = 2026-004P
CENTER_NAME    = EARTH
REF_FRAME      = TEME
TIME_SYSTEM    = UTC
MEAN_ELEMENT_THEORY = SGP/SGP4

EPOCH          = 2026-02-04T03:41:10.236480
MEAN_MOTION    = 14.87796472
ECCENTRICITY   = .0004918
INCLINATION    = 97.8005
RA_OF_ASC_NODE = 35.9260
ARG_OF_PERICENTER = 190.8752
MEAN_ANOMALY   = 169.2359

EPHEMERIS_TYPE = 0
CLASSIFICATION_TYPE = U
NORAD_CAT_ID   = 67376
ELEMENT_SET_NO = 999
REV_AT_EPOCH   = 351
BSTAR          = .30136E-3
MEAN_MOTION_DOT = .2698E-4
MEAN_MOTION_DDOT = 0

CCSDS_OMM_VERS = 2.0
CREATION_DATE  = 
ORIGINATOR     = 

OBJECT_NAME    = TWILIGHT Q
OBJECT_ID      = 2026-004Q
CENTER_NAME    = EARTH
REF_FRAME      = TEME
TIME_SYSTEM    = UTC
MEAN_ELEMENT_THEORY = SGP/SGP4

EPOCH          = 2026-02-03T21:09:52.767072
MEAN_MOTION    = 14.88446928
ECCENTRICITY   = .0003167
INCLINATION    = 97.8005
RA_OF_ASC_NODE = 35.6653
ARG_OF_PERICENTER = 218.4141
MEAN_ANOMALY   = 141.6851

EPHEMERIS_TYPE = 0
CLASSIFICATION_TYPE = U
NORAD_CAT_ID   = 67377
ELEMENT_SET_NO = 999
REV_AT_EPOCH   = 346
BSTAR          = .23529E-1
MEAN_MOTION_DOT = .225482E-2
MEAN_MOTION_DDOT = 0

CCSDS_OMM_VERS = 2.0
CREATION_DATE  = 
ORIGINATOR     = 

OBJECT_NAME    = TWILIGHT R
OBJECT_ID      = 2026-004R
CENTER_NAME    = EARTH
REF_FRAME      = TEME
TIME_SYSTEM    = UTC
MEAN_ELEMENT_THEORY = SGP/SGP4

EPOCH          = 2026-02-04T03:42:50.050944
MEAN_MOTION    = 14.87729056
ECCENTRICITY   = .000426
INCLINATION    = 97.7979
RA_OF_ASC_NODE = 35.9183
ARG_OF_PERICENTER = 199.4694
MEAN_ANOMALY   = 160.6361

EPHEMERIS_TYPE = 0
CLASSIFICATION_TYPE = U
NORAD_CAT_ID   = 67378
ELEMENT_SET_NO = 999
REV_AT_EPOCH   = 350
BSTAR          = .29785E-3
MEAN_MOTION_DOT = .2662E-4
MEAN_MOTION_DDOT = 0

CCSDS_OMM_VERS = 2.0
CREATION_DATE  = 
ORIGINATOR     = 

OBJECT_NAME    = TWILIGHT S
OBJECT_ID      = 2026-004S
CENTER_NAME    = EARTH
REF_FRAME      = TEME
TIME_SYSTEM    = UTC
MEAN_ELEMENT_THEORY = SGP/SGP4

EPOCH          = 2026-02-04T03:42:35.112384
MEAN_MOTION    = 14.87736469
ECCENTRICITY   = .0004792
INCLINATION    = 97.7983
RA_OF_ASC_NODE = 35.9205
ARG_OF_PERICENTER = 196.4388
MEAN_ANOMALY   = 163.6674

EPHEMERIS_TYPE = 0
CLASSIFICATION_TYPE = U
NORAD_CAT_ID   = 67379
ELEMENT_SET_NO = 999
REV_AT_EPOCH   = 350
BSTAR          = .29173E-3
MEAN_MOTION_DOT = .2606E-4
MEAN_MOTION_DDOT = 0

CCSDS_OMM_VERS = 2.0
CREATION_DATE  = 
ORIGINATOR     = 

OBJECT_NAME    = TWILIGHT T
OBJECT_ID      = 2026-004T
CENTER_NAME    = EARTH
REF_FRAME      = TEME
TIME_SYSTEM    = UTC
MEAN_ELEMENT_THEORY = SGP/SGP4

EPOCH          = 2026-02-04T03:40:29.574912
MEAN_MOTION    = 14.87837613
ECCENTRICITY   = .0004328
INCLINATION    = 97.7975
RA_OF_ASC_NODE = 35.9204
ARG_OF_PERICENTER = 194.7029
MEAN_ANOMALY   = 165.4062

EPHEMERIS_TYPE = 0
CLASSIFICATION_TYPE = U
NORAD_CAT_ID   = 67380
ELEMENT_SET_NO = 999
REV_AT_EPOCH   = 350
BSTAR          = .2926E-3
MEAN_MOTION_DOT = .2621E-4
MEAN_MOTION_DDOT = 0

CCSDS_OMM_VERS = 2.0
CREATION_DATE  = 
ORIGINATOR     = 

OBJECT_NAME    = TWILIGHT U
OBJECT_ID      = 2026-004U
CENTER_NAME    = EARTH
REF_FRAME      = TEME
TIME_SYSTEM    = UTC
MEAN_ELEMENT_THEORY = SGP/SGP4

EPOCH          = 2026-02-03T11:28:59.835648
MEAN_MOTION    = 14.87982200
ECCENTRICITY   = .00047746
INCLINATION    = 97.8010
RA_OF_ASC_NODE = 35.2712
ARG_OF_PERICENTER = 186.7651
MEAN_ANOMALY   = 173.3501

EPHEMERIS_TYPE = 0
CLASSIFICATION_TYPE = U
NORAD_CAT_ID   = 67381
ELEMENT_SET_NO = 999
REV_AT_EPOCH   = 340
BSTAR          = .42379342E-3
MEAN_MOTION_DOT = .3835E-4
MEAN_MOTION_DDOT = 0

