TWILIGHT H              
1 67370U 26004H   26035.16057859  .00005886  00000+0  65587-3 0  9992
2 67370  97.7954  35.9080 0006003 211.8994 148.1860 14.87428418  3518
TWILIGHT J              
1 67371U 26004J   26035.15496676  .00007370  00000+0  81143-3 0  9992
2 67371  97.7995  35.9219 0005376 194.0675 166.0393 14.87839746  3518
TWILIGHT K              
1 67372U 26004K   26035.15068742  .00003141  00000+0  34832-3 0  9997
2 67372  97.7973  35.9231 0003728 187.6280 172.4880 14.87970796  3511
TWILIGHT L              
1 67373U 26004L   26035.15690769  .00002858  00000+0  32061-3 0  9994
2 67373  97.7987  35.9180 0005214 200.9535 159.1469 14.87575370  3518
TWILIGHT M              
1 67374U 26004M   26035.15165622  .00003414  00000+0  37847-3 0  9996
2 67374  97.7971  35.9205 0004013 188.2506 171.8645 14.87934013  3512
TWILIGHT N              
1 67375U 26004N   26035.15124315  .00003174  00000+0  35211-3 0  9997
2 67375  97.8008  35.9301 0004611 184.3846 175.7331 14.87954531  3512
TWILIGHT P              
1 67376U 26004P   26035.15359070  .00002698  00000+0  30136-3 0  9997
2 67376  97.8005  35.9260 0004918 190.8752 169.2359 14.87796472  3518
TWILIGHT Q              
1 67377U 26004Q   26034.88186073  .00225482  00000+0  23529-1 0  9992
2 67377  97.8005  35.6653 0003167 218.4141 141.6851 14.88446928  3460
TWILIGHT R              
1 67378U 26004R   26035.15474596  .00002662  00000+0  29785-3 0  9999
2 67378  97.7979  35.9183 0004260 199.4694 160.6361 14.87729056  3504
TWILIGHT S              
1 67379U 26004S   26035.15457306  .00002606  00000+0  29173-3 0  9999
2 67379  97.7983  35.9205 0004792 196.4388 163.6674 14.87736469  3508
TWILIGHT T              
1 67380U 26004T   26035.15312008  .00002621  00000+0  29260-3 0  9994
2 67380  97.7975  35.9204 0004328 194.7029 165.4062 14.87837613  3502
TWILIGHT U              
1 67381U 26004U   26034.47847032  .00003835  00000+0  42379-3 0  9993
2 67381  97.8010  35.2712 0004774 186.7651 173.3501 14.87982200  3406
